ONEWEB-0555             
1 56057U 23043M   24251.33318576  .00000018  00000+0  13778-4 0  9993
2 56057  87.9171 357.7827 0002047  82.3982 277.7381 13.16592802 74623
ONEWEB-0557             
1 56058U 23043N   24250.35947383  .00000131  00000+0  30960-3 0  9996
2 56058  87.9174 358.0009 0001929  66.5189 293.6144 13.16593114 73589
ONEWEB-0558             
1 56059U 23043P   24251.32998669  .00000171  00000+0  38219-3 0  9997
2 56059  87.9353  12.9698 0001876 113.6033 246.5299 13.21825029 73567
ONEWEB-0559             
1 56060U 23043Q   24250.86475633 -.00000003  00000+0 -39594-4 0  9992
2 56060  87.9352  13.0587 0001338 111.4445 248.6832 13.21822521 73518
ONEWEB-0566             
1 56061U 23043R   24251.08555578  .00000079  00000+0  15910-3 0  9991
2 56061  87.9352  13.0151 0001929 119.9789 240.1537 13.21825175 73524
ONEWEB-0568             
1 56062U 23043S   24250.37688874  .00000146  00000+0  34736-3 0  9991
2 56062  87.9174 357.9618 0001964  91.1237 269.0119 13.16592259 73606
ONEWEB-0574             
1 56063U 23043T   24251.38203039  .00000174  00000+0  38963-3 0  9997
2 56063  87.9349  12.9497 0001945  97.7277 262.4078 13.21824862 73604
ONEWEB-0575             
1 56064U 23043U   24250.37053672  .00000081  00000+0  17766-3 0  9997
2 56064  87.9174 357.9733 0001572  77.4801 282.6506 13.16596668 73592
ONEWEB-0576             
1 56065U 23043V   24251.33952037  .00000033  00000+0  52705-4 0  9998
2 56065  87.9173 357.7769 0001897  88.5076 271.6273 13.16592901 74626
ONEWEB-0577             
1 56066U 23043W   24250.73785654 -.00000357  00000+0 -96623-3 0  9998
2 56066  87.9171 357.8958 0001434  72.7329 287.3959 13.16593728 74576
ONEWEB-0578             
1 56067U 23043X   24251.36941791  .00000175  00000+0  39281-3 0  9998
2 56067  87.9355  12.9534 0001856  93.7319 266.4028 13.21825795 73561
ONEWEB-0579             
1 56068U 23043Y   24250.90576933  .00000083  00000+0  17045-3 0  9992
2 56068  87.9349  13.0399 0001479 107.9295 252.2000 13.21826574 73512
ONEWEB-0581             
1 56069U 23043Z   24250.36421135 -.00000094  00000+0 -27822-3 0  9994
2 56069  87.9173 357.9996 0001226  89.8468 270.2803 13.16591947 73586
ONEWEB-0609             
1 56070U 23043AA  24250.41473501 -.00000081  00000+0 -25021-3 0  9991
2 56070  87.9080  28.3163 0001769 100.0823 260.0507 13.15550978 71138
ONEWEB-0613             
1 56071U 23043AB  24251.09452341  .00000027  00000+0  37190-4 0  9995
2 56071  87.9085  28.1802 0001563 106.7484 253.3818 13.15550049 72130
ONEWEB-0630             
1 56072U 23043AC  24251.08975768 -.00000017  00000+0 -80354-4 0  9999
2 56072  87.9080  28.1690 0001860 106.1288 254.0047 13.15549931 72126
ONEWEB-0632             
1 56073U 23043AD  24250.40047053  .00000033  00000+0  54442-4 0  9997
2 56073  87.9081  28.3251 0001315  89.5652 270.5629 13.15551296 71122
ONEWEB-0633             
1 56074U 23043AE  24250.47019518  .00000166  00000+0  40816-3 0  9996
2 56074  87.9079  28.2900 0001792 112.7885 247.3435 13.15550847 71113
ONEWEB-0634             
1 56075U 23043AF  24251.44467629 -.00000527  00000+0 -14340-2 0  9990
2 56075  87.9084  28.1127 0002073  98.5682 261.5683 13.15548318 72146
ONEWEB-0635             
1 56076U 23043AG  24250.45119227  .00000167  00000+0  40989-3 0  9996
2 56076  87.9081  28.3629 0001321  87.7123 272.4159 13.15549848 71134
ONEWEB-0636             
1 56077U 23043AH  24251.12777185  .00000167  00000+0  41031-3 0  9994
2 56077  87.9081  28.1988 0001344  89.6382 270.4902 13.15551264 72112
ONEWEB-0637             
1 56078U 23043AJ  24250.43692048  .00000113  00000+0  26553-3 0  9995
2 56078  87.9082  28.3136 0001411  85.1791 274.9500 13.15550715 71135
ONEWEB-0647             
1 56079U 23043AK  24250.43218616  .00000022  00000+0  23425-4 0  9996
2 56079  87.9080  28.3311 0001441 100.1164 260.0129 13.15546134 71126
ONEWEB-0651             
1 56080U 23043AL  24250.80771617 -.00000025  00000+0 -10170-3 0  9991
2 56080  87.9086  28.2359 0001524  83.1667 276.9637 13.15547199 71172
ONEWEB-0718             
1 56081U 23043AM  24251.41141507 -.00000076  00000+0 -23586-3 0  9990
2 56081  87.9085  28.1015 0002316  96.6869 263.4525 13.15550335 72177
ONEWEB-0561             
1 56710U 23068A   24251.47721787  .00000030  00000+0  40941-4 0  9999
2 56710  87.9236  43.3165 0001059  82.9296 277.1957 13.20768271 64701
ONEWEB-0668             
1 56711U 23068B   24250.36660182  .00000265  00000+0  65863-3 0  9997
2 56711  87.9164 357.9745 0002335  92.4540 267.6859 13.16592267 66405
ONEWEB-0676             
1 56712U 23068C   24251.33475989  .00000386  00000+0  97640-3 0  9997
2 56712  87.9169 357.7936 0001260 101.7552 258.3720 13.16590363 67156
ONEWEB-0677             
1 56713U 23068D   24250.93586117  .00000084  00000+0  17441-3 0  9995
2 56713  87.9213  43.4059 0001669  83.9073 276.2250 13.20773962 64937
ONEWEB-0678             
1 56714U 23068E   24251.37971359  .00000226  00000+0  56734-3 0  9997
2 56714  87.9086  28.0736 0001508 106.5642 253.5654 13.15550930 64818
ONEWEB-0679             
1 56715U 23068F   24251.53188870  .00000214  00000+0  52697-3 0  9995
2 56715  87.9169 357.7562 0001962  78.6530 281.4821 13.16594345 67200
ONEWEB-0680             
1 56716U 23068G   24250.37905721 -.00000534  00000+0 -13240-2 0  9996
2 56716  87.9352  13.1939 0002685  86.7046 273.4395 13.21826726 65382
ONEWEB-0681             
1 56717U 23068H   24250.38927573  .00000116  00000+0  25011-3 0  9991
2 56717  87.9351  13.1715 0001189  59.1737 300.9514 13.21829759 65370
ONEWEB-0682             
1 56718U 23068J   24250.87345884 -.00000056  00000+0 -18253-3 0  9990
2 56718  87.9081  28.2135 0002167  83.0688 277.0689 13.15550301 64915
ONEWEB-0683             
1 56719U 23068K   24251.12303782  .00000023  00000+0  25777-4 0  9993
2 56719  87.9080  28.1364 0002022  90.2154 269.9208 13.15546576 64912
ONEWEB-0684             
1 56720U 23068L   24250.44642961  .00000156  00000+0  38085-3 0  9996
2 56720  87.9084  28.3475 0002232 139.7000 220.4296 13.15550328 63957
ONEWEB-0686             
1 56721U 23068M   24250.38162434 -.00000279  00000+0 -76280-3 0  9999
2 56721  87.9171 358.0204 0001824 100.8691 259.2645 13.16592968 66340
ONEWEB-0694             
1 56722U 23068N   24251.32920241 -.00000546  00000+0 -14608-2 0  9995
2 56722  87.9167 357.7508 0002110  91.2219 268.9154 13.16593510 67221
ONEWEB-0696             
1 56723U 23068P   24250.40365564  .00000034  00000+0  56471-4 0  9991
2 56723  87.9078  28.3294 0001345 104.3814 255.7465 13.15546487 64060
ONEWEB-0703             
1 56724U 23068Q   24251.09768317  .00000104  00000+0  24311-3 0  9996
2 56724  87.9081  28.2124 0000807 140.3299 219.7891 13.15548116 64744
ONEWEB-0721             
1 56725U 23068R   24251.16068733 -.00000559  00000+0 -67094-4 0  9992
2 56725  86.6748 301.7869 0008803 359.3843   0.7369 14.86097414 71371
